NOAA 1 [-]              
1 04793U 70106A   19136.31945115 -.00000042  00000-0  15208-4 0  9993
2 04793 101.7049 205.3053 0031444 351.4200  50.2467 12.53989301216662
NOAA 2 (ITOS-D) [-]     
1 06235U 72082A   19136.49836752 -.00000038  00000-0  43349-4 0  9998
2 06235 101.7925 103.2196 0004515  78.9995  33.7618 12.53113901130915
NOAA 3 [-]              
1 06920U 73086A   19136.50011029 -.00000076  00000-0 -23082-3 0  9992
2 06920 102.0486 105.9522 0006109 213.5975 262.3799 12.40343152 61136
NOAA 4 [-]              
1 07529U 74089A   19136.48941863 -.00000033  00000-0  76106-4 0  9995
2 07529 101.7499 104.5152 0009233 108.6535   2.4936 12.53127548 35504
NOAA 5 [-]              
1 09057U 76077A   19136.49696226 -.00000064  00000-0 -15489-3 0  9994
2 09057 101.9295 108.4675 0010366  68.5241  41.3759 12.37753671934404
TIROS N [P]             
1 11060U 78096A   19135.17218848  .00000005  00000-0  23756-4 0  9998
2 11060  98.7932 192.8334 0011414 142.7689 217.4279 14.18232720311777
NOAA 6 [P]              
1 11416U 79057A   19136.46722216  .00000035  00000-0  28629-4 0  9990
2 11416  98.6368 130.6484 0010167 353.2282   6.8763 14.33529751 80111
NOAA 7 [-]              
1 12553U 81059A   19136.47315374 -.00000028  00000-0  89418-5 0  9999
2 12553  99.0970 143.0442 0012530  78.2536  38.6629 14.17258135958241
NOAA 8 [-]              
1 13923U 83022A   19136.48409048  .00000006  00000-0  19878-4 0  9993
2 13923  98.5805 122.3492 0014009 273.7061  86.2518 14.28672920881602
NOAA 9 [P]              
1 15427U 84123A   19136.45541759 -.00000019  00000-0  12887-4 0  9998
2 15427  98.8899  85.4576 0015652 126.9921 342.8207 14.16067531777197
NOAA 10 [-]             
1 16969U 86073A   19136.46227619  .00000007  00000-0  19811-4 0  9993
2 16969  98.4785 133.9653 0012732  28.9966  86.3522 14.28070569700093
NOAA 11 [-]             
1 19531U 88089A   19136.21359761 -.00000017  00000-0  12134-4 0  9990
2 19531  98.4511 172.2299 0011088 184.9851 175.1215 14.15240385581486
NOAA 12 [-]             
1 21263U 91032A   19136.23489061 -.00000001  00000-0  17490-4 0  9999
2 21263  98.5183 152.5390 0014485  44.8211 315.4137 14.25891845456205
NOAA 13 [-]             
1 22739U 93050A   19136.09920910 -.00000016  00000-0  13501-4 0  9992
2 22739  98.4742 160.6712 0009090 344.3895  15.6996 14.12729369327974
NOAA 14 [-]             
1 23455U 94089A   19136.32044059 -.00000028  00000-0  73910-5 0  9992
2 23455  98.5989 198.8298 0008701 326.5202  33.5421 14.14129737257506
NOAA 15 [B]             
1 25338U 98030A   19136.22583193  .00000073  00000-0  49284-4 0  9995
2 25338  98.7492 157.5482 0010007 346.8565  13.2352 14.25907547 92482
NOAA 16 [-]             
1 26536U 00055A   19136.44941022 -.00000013  00000-0  16339-4 0  9999
2 26536  98.7767 209.0215 0011390 135.3472 224.8620 14.13228473961539
NOAA 17 [-]             
1 27453U 02032A   19136.47878759 -.00000013  00000-0  12652-4 0  9998
2 27453  98.5346  87.8237 0010998 323.5292  36.5138 14.25039559878222
NOAA 18 [B]             
1 28654U 05018A   19136.34167719  .00000100  00000-0  79380-4 0  9999
2 28654  99.0990 182.8056 0013161 271.0917  88.8746 14.12423485720804
NOAA 19 [+]             
1 33591U 09005A   19136.46391599  .00000089  00000-0  73418-4 0  9995
2 33591  99.1789 126.7860 0014962 110.2529 250.0251 14.12351201529223
SUOMI NPP [+]           
1 37849U 11061A   19135.87781664  .00000001  00000-0  21251-4 0  9992
2 37849  98.7343  74.5285 0001033  63.1572 333.2688 14.19540215391085
NOAA 20 [+]             
1 43013U 17073A   19136.47004861 -.00000021  00000-0  10838-4 0  9997
2 43013  98.7189  75.1351 0001389  70.9295 289.2031 14.19554971 77195
